H1 CPF 01  gfz 2021 02 03 01  5341 terrasarx 
H2 0702601  6201 31698    2021 02 03 00 59 42 2021 02 08 00 00 42   120 1 1  0 0 0
H9
10 0 59249  49662.000000  0   -2591344.653  -3641594.374  -5249265.212
10 0 59249  49782.000000  0   -2349488.357  -2931708.735  -5780982.294
10 0 59249  49902.000000  0   -2054036.073  -2175654.398  -6211672.420
10 0 59249  50022.000000  0   -1709459.348  -1387481.367  -6533899.854
10 0 59249  50142.000000  0   -1321315.817   -581681.361  -6742113.415
10 0 59249  50262.000000  0    -896159.603    227075.522  -6832731.218
10 0 59249  50382.000000  0    -441431.988   1024201.667  -6804195.191
10 0 59249  50502.000000  0      34666.285   1795448.264  -6656994.748
10 0 59249  50622.000000  0     523317.893   2527153.168  -6393659.930
10 0 59249  50742.000000  0    1015248.516   3206479.107  -6018724.692
10 0 59249  50862.000000  0    1500899.073   3821637.426  -5538656.179
10 0 59249  50982.000000  0    1970607.278   4362093.109  -4961753.557
10 0 59249  51102.000000  0    2414797.343   4818749.770  -4298016.540
10 0 59249  51222.000000  0    2824173.519   5184110.483  -3558981.956
10 0 59249  51342.000000  0    3189913.497   5452409.645  -2757531.657
10 0 59249  51462.000000  0    3503858.664   5619713.989  -1907673.292
10 0 59249  51582.000000  0    3758695.598   5683988.277  -1024296.735
10 0 59249  51702.000000  0    3948123.790   5645124.317   -122910.490
10 0 59249  51822.000000  0    4067005.272   5504931.189    780636.400
10 0 59249  51942.000000  0    4111492.279   5267086.016   1670440.781
10 0 59249  52062.000000  0    4079129.128   4937047.413   2530832.457
10 0 59249  52182.000000  0    3968927.283   4521935.310   3346659.901
10 0 59249  52302.000000  0    3781407.487   4030373.999   4103564.630
10 0 59249  52422.000000  0    3518613.151   3472308.902   4788236.652
10 0 59249  52542.000000  0    3184091.970   2858801.146   5388652.354
10 0 59249  52662.000000  0    2782843.985   2201800.991   5894283.903
10 0 59249  52782.000000  0    2321244.552   1513910.216   6296277.715
10 0 59249  52902.000000  0    1806939.775    808136.561   6587604.338
10 0 59249  53022.000000  0    1248716.459     97646.295   6763174.410
10 0 59249  53142.000000  0     656350.133   -604480.009   6819922.749
10 0 59249  53262.000000  0      40433.299  -1285488.548   6756859.598
10 0 59249  53382.000000  0    -587814.224  -1933183.787   6575086.331
10 0 59249  53502.000000  0   -1216749.502  -2536146.891   6277776.516
10 0 59249  53622.000000  0   -1834520.313  -3083936.897   5870122.526
10 0 59249  53742.000000  0   -2429286.370  -3567272.946   5359251.687
10 0 59249  53862.000000  0   -2989447.958  -3978196.101   4754109.747
10 0 59249  53982.000000  0   -3503876.590  -4310205.859   4065309.629
10 0 59249  54102.000000  0   -3962139.683  -4558367.785   3304948.113
10 0 59249  54222.000000  0   -4354715.007  -4719390.959   2486394.913
10 0 59249  54342.000000  0   -4673191.885  -4791673.809   1624056.906
10 0 59249  54462.000000  0   -4910453.598  -4775315.372    733119.929
10 0 59249  54582.000000  0   -5060835.627  -4672091.666   -170725.321
10 0 59249  54702.000000  0   -5120256.096  -4485397.984  -1071568.092
10 0 59249  54822.000000  0   -5086314.318  -4220158.085  -1953567.481
10 0 59249  54942.000000  0   -4958354.140  -3882701.781  -2801239.833
10 0 59249  55062.000000  0   -4737491.155  -3480615.570  -3599735.683
10 0 59249  55182.000000  0   -4426604.928  -3022571.428  -4335101.491
10 0 59249  55302.000000  0   -4030296.640  -2518137.657  -4994522.019
10 0 59249  55422.000000  0   -3554813.262  -1977576.499  -5566538.276
10 0 59249  55542.000000  0   -3007941.409  -1411633.829  -6041238.179
10 0 59249  55662.000000  0   -2398873.602   -831325.083  -6410417.988
10 0 59249  55782.000000  0   -1738048.963   -247722.147  -6667712.819
10 0 59249  55902.000000  0   -1036972.381    328254.409  -6808694.217
10 0 59249  56022.000000  0    -308017.135    886034.140  -6830937.414
10 0 59249  56142.000000  0     435788.678   1415585.880  -6734058.430
10 0 59249  56262.000000  0    1180988.175   1907592.792  -6519721.171
10 0 59249  56382.000000  0    1913934.484   2353613.780  -6191613.394
10 0 59249  56502.000000  0    2621035.876   2746227.104  -5755389.925
10 0 59249  56622.000000  0    3289004.648   3079154.117  -5218583.875
10 0 59249  56742.000000  0    3905105.005   3347361.539  -4590488.490
10 0 59249  56862.000000  0    4457398.605   3547141.526  -3882007.815
10 0 59249  56982.000000  0    4934981.276   3676165.890  -3105476.464
10 0 59249  57102.000000  0    5328204.279   3733513.332  -2274450.925
10 0 59249  57222.000000  0    5628876.378   3719669.703  -1403476.223
10 0 59249  57342.000000  0    5830441.245   3636498.954   -507830.161
10 0 59249  57462.000000  0    5928124.779   3487185.762    396748.408
10 0 59249  57582.000000  0    5919049.107   3276150.895   1294342.913
10 0 59249  57702.000000  0    5802308.263   3008940.655   2169147.797
10 0 59249  57822.000000  0    5579004.100   2692094.278   3005755.348
10 0 59249  57942.000000  0    5252241.690   2332991.763   3789435.824
10 0 59249  58062.000000  0    4827082.643   1939685.767   4506402.910
10 0 59249  58182.000000  0    4310459.814   1520722.923   5144057.367
10 0 59249  58302.000000  0    3711058.597   1084959.236   5691208.997
10 0 59249  58422.000000  0    3039160.522    641373.011   6138271.323
10 0 59249  58542.000000  0    2306458.633    198880.341   6477421.920
10 0 59249  58662.000000  0    1525850.227   -233842.081   6702732.807
10 0 59249  58782.000000  0     711207.190   -648525.991   6810269.987
10 0 59249  58902.000000  0    -122872.991  -1037468.982   6798157.745
10 0 59249  59022.000000  0    -961328.786  -1393676.811   6666608.452
10 0 59249  59142.000000  0   -1788905.760  -1710989.329   6417918.026
10 0 59249  59262.000000  0   -2590432.007  -1984186.411   6056427.346
10 0 59249  59382.000000  0   -3351095.051  -2209073.832   5588453.624
10 0 59249  59502.000000  0   -4056720.114  -2382549.615   5022187.783
10 0 59249  59622.000000  0   -4694039.584  -2502647.279   4367555.620
10 0 59249  59742.000000  0   -5250948.827  -2568554.708   3636047.540
10 0 59249  59862.000000  0   -5716743.094  -2580608.228   2840519.686
10 0 59249  59982.000000  0   -6082331.686  -2540263.064   1994969.254
10 0 59249  60102.000000  0   -6340424.642  -2450041.237   1114285.584
10 0 59249  60222.000000  0   -6485684.117  -2313455.273    213980.469
10 0 59249  60342.000000  0   -6514837.025  -2134910.725   -690092.494
10 0 59249  60462.000000  0   -6426747.112  -1919590.034  -1582026.948
10 0 59249  60582.000000  0   -6222441.975  -1673321.004  -2446152.497
10 0 59249  60702.000000  0   -5905096.825  -1402433.497  -3267316.339
10 0 59249  60822.000000  0   -5479975.965  -1113608.079  -4031152.475
10 0 59249  60942.000000  0   -4954334.177   -813720.439  -4724333.226
10 0 59249  61062.000000  0   -4337280.832   -509685.077  -5334798.484
10 0 59249  61182.000000  0   -3639609.963   -208302.698  -5851958.514
10 0 59249  61302.000000  0   -2873601.717     83885.778  -6266867.113
10 0 59249  61422.000000  0   -2052800.701    360735.152  -6572364.201
10 0 59249  61542.000000  0   -1191774.566    616618.945  -6763188.250
10 0 59249  61662.000000  0    -305857.428    846538.739  -6836056.961
10 0 59249  61782.000000  0     589117.322   1046218.488  -6789716.310
10 0 59249  61902.000000  0    1477091.907   1212180.848  -6624961.467
10 0 59249  62022.000000  0    2342066.822   1341806.977  -6344626.280
10 0 59249  62142.000000  0    3168383.956   1433377.716  -5953539.458
10 0 59249  62262.000000  0    3941006.226   1486095.029  -5458448.668
10 0 59249  62382.000000  0    4645789.759   1500084.077  -4867915.514
10 0 59249  62502.000000  0    5269746.854   1476376.059  -4192179.280
10 0 59249  62622.000000  0    5801292.091   1416871.292  -3442988.981
10 0 59249  62742.000000  0    6230466.572   1324283.008  -2633407.441
10 0 59249  62862.000000  0    6549136.689   1202063.054  -1777589.070
10 0 59249  62982.000000  0    6751160.906   1054310.897   -890532.803
10 0 59249  63102.000000  0    6832518.777    885667.084     12184.139
10 0 59249  63222.000000  0    6791397.953    701194.859    914685.822
10 0 59249  63342.000000  0    6628239.061    506252.453   1801083.713
10 0 59249  63462.000000  0    6345735.371    306358.061   2655766.343
10 0 59249  63582.000000  0    5948784.951    107052.503   3463682.781
10 0 59249  63702.000000  0    5444399.381    -86237.950   4210614.531
10 0 59249  63822.000000  0    4841570.945   -268332.882   4883428.629
10 0 59249  63942.000000  0    4151103.137   -434422.858   5470310.832
10 0 59249  64062.000000  0    3385405.421   -580183.942   5960970.482
10 0 59249  64182.000000  0    2558261.894   -701878.170   6346816.066
10 0 59249  64302.000000  0    1684577.095   -796439.715   6621099.784
10 0 59249  64422.000000  0     780103.415   -861544.581   6779030.803
10 0 59249  64542.000000  0    -138846.064   -895662.528   6817853.393
10 0 59249  64662.000000  0   -1055691.709   -898090.347   6736890.682
10 0 59249  64782.000000  0   -1953885.114   -868966.155   6537555.095
10 0 59249  64902.000000  0   -2817206.023   -809263.822   6223324.904
10 0 59249  65022.000000  0   -3630054.581   -720768.083   5799688.665
10 0 59249  65142.000000  0   -4377736.375   -606030.993   5274056.280
10 0 59249  65262.000000  0   -5046734.232   -468310.574   4655635.702
10 0 59249  65382.000000  0   -5624960.307   -311492.179   3955276.193
10 0 59249  65502.000000  0   -6101983.189   -139994.306   3185280.890
10 0 59249  65622.000000  0   -6469225.511     41339.334   2359192.690
10 0 59249  65742.000000  0   -6720128.950    227359.617   1491554.704
10 0 59249  65862.000000  0   -6850280.073    412739.743    597649.010
10 0 59249  65982.000000  0   -6857493.645    592108.134   -306780.285
10 0 59249  66102.000000  0   -6741850.513    760183.525  -1205813.704
99
